{"type": "FeatureCollection", "features": [ {"type": "Feature", "properties": {"norad_id": 34001, "name": "COSMOS 2251 DEB", "group": "cosmos-2251-debris", "lat": 42.83356742205584, "lon": 85.43878711178927, "alt_km": 773.9529619119858, "timestamp": "2025-12-13T03:42:11.665385+00:00", "meta": {"OBJECT_NAME": "COSMOS 2251 DEB", "OBJECT_ID": "1993-036GL", "EPOCH": "2025-12-12T06:03:30.898944", "MEAN_MOTION": 14.37097701, "ECCENTRICITY": 0.00199285, "INCLINATION": 74.0388, "RA_OF_ASC_NODE": 282.4832, "ARG_OF_PERICENTER": 3.5131, "MEAN_ANOMALY": 147.2925, "EPHEMERIS_TYPE": 0, "CLASSIFICATION_TYPE": "U", "NORAD_CAT_ID": 34001, "ELEMENT_SET_NO": 999, "REV_AT_EPOCH": 88139, "BSTAR": 0.00033860249, "MEAN_MOTION_DOT": 9.82e-06, "MEAN_MOTION_DDOT": 0}, "tle": {"line1": "1 34001U 93036GL  25346.25244096  .00000982  00000+0  33860-3 0  9992", "line2": "2 34001  74.0388 282.4832 0019928   3.5131 147.2925 14.37097701881399"}}, "geometry": {"type": "Point", "coordinates": [85.43878711178927, 42.83356742205584]}}, {"type": "Feature", "properties": {"norad_id": 34003, "name": "COSMOS 2251 DEB", "group": "cosmos-2251-debris", "lat": -56.46287467500664, "lon": -101.06237659627324, "alt_km": 972.8210834920064, "timestamp": "2025-12-13T03:42:11.665395+00:00", "meta": {"OBJECT_NAME": "COSMOS 2251 DEB", "OBJECT_ID": "1993-036GN", "EPOCH": "2025-12-12T05:26:15.277344", "MEAN_MOTION": 13.84147254, "ECCENTRICITY": 0.0274236, "INCLINATION": 74.078, "RA_OF_ASC_NODE": 286.0079, "ARG_OF_PERICENTER": 38.1447, "MEAN_ANOMALY": 323.8739, "EPHEMERIS_TYPE": 0, "CLASSIFICATION_TYPE": "U", "NORAD_CAT_ID": 34003, "ELEMENT_SET_NO": 999, "REV_AT_EPOCH": 84418, "BSTAR": 0.0032157, "MEAN_MOTION_DOT": 4.774e-05, "MEAN_MOTION_DDOT": 0}, "tle": {"line1": "1 34003U 93036GN  25346.22656571  .00004774  00000+0  32157-2 0  9996", "line2": "2 34003  74.0780 286.0079 0274236  38.1447 323.8739 13.84147254844180"}}, "geometry": {"type": "Point", "coordinates": [-101.06237659627324, -56.46287467500664]}}, {"type": "Feature", "properties": {"norad_id": 34004, "name": "COSMOS 2251 DEB", "group": "cosmos-2251-debris", "lat": 36.961796911803276, "lon": -35.226942430666845, "alt_km": 719.4409054841799, "timestamp": "2025-12-13T03:42:11.665406+00:00", "meta": {"OBJECT_NAME": "COSMOS 2251 DEB", "OBJECT_ID": "1993-036GP", "EPOCH": "2025-12-11T23:21:26.138016", "MEAN_MOTION": 14.48998167, "ECCENTRICITY": 0.0033374, "INCLINATION": 74.0358, "RA_OF_ASC_NODE": 314.5469, "ARG_OF_PERICENTER": 326.8524, "MEAN_ANOMALY": 33.0543, "EPHEMERIS_TYPE": 0, "CLASSIFICATION_TYPE": "U", "NORAD_CAT_ID": 34004, "ELEMENT_SET_NO": 999, "REV_AT_EPOCH": 88019, "BSTAR": 0.0021188, "MEAN_MOTION_DOT": 8.073e-05, "MEAN_MOTION_DDOT": 0}, "tle": {"line1": "1 34004U 93036GP  25345.97321919  .00008073  00000+0  21188-2 0  9991", "line2": "2 34004  74.0358 314.5469 0033374 326.8524  33.0543 14.48998167880193"}}, "geometry": {"type": "Point", "coordinates": [-35.226942430666845, 36.961796911803276]}}, {"type": "Feature", "properties": {"norad_id": 34005, "name": "COSMOS 2251 DEB", "group": "cosmos-2251-debris", "lat": -57.27944168761438, "lon": -173.5594215709516, "alt_km": 751.5948009405902, "timestamp": "2025-12-13T03:42:11.665416+00:00", "meta": {"OBJECT_NAME": "COSMOS 2251 DEB", "OBJECT_ID": "1993-036GQ", "EPOCH": "2025-12-12T01:51:15.265728", "MEAN_MOTION": 14.40303618, "ECCENTRICITY": 0.00208236, "INCLINATION": 74.0444, "RA_OF_ASC_NODE": 214.8713, "ARG_OF_PERICENTER": 333.1316, "MEAN_ANOMALY": 143.6947, "EPHEMERIS_TYPE": 0, "CLASSIFICATION_TYPE": "U", "NORAD_CAT_ID": 34005, "ELEMENT_SET_NO": 999, "REV_AT_EPOCH": 88369, "BSTAR": 0.00015869498, "MEAN_MOTION_DOT": 4.78e-06, "MEAN_MOTION_DDOT": 0}, "tle": {"line1": "1 34005U 93036GQ  25346.07726002  .00000478  00000+0  15869-3 0  9997", "line2": "2 34005  74.0444 214.8713 0020823 333.1316 143.6947 14.40303618883696"}}, "geometry": {"type": "Point", "coordinates": [-173.5594215709516, -57.27944168761438]}}, {"type": "Feature", "properties": {"norad_id": 34006, "name": "COSMOS 2251 DEB", "group": "cosmos-2251-debris", "lat": -67.92521171201939, "lon": 97.615105238042, "alt_km": 597.5150542848723, "timestamp": "2025-12-13T03:42:11.665427+00:00", "meta": {"OBJECT_NAME": "COSMOS 2251 DEB", "OBJECT_ID": "1993-036GR", "EPOCH": "2025-12-12T04:43:38.894880", "MEAN_MOTION": 14.94696683, "ECCENTRICITY": 0.00114561, "INCLINATION": 74.0529, "RA_OF_ASC_NODE": 144.3779, "ARG_OF_PERICENTER": 90.5339, "MEAN_ANOMALY": 85.7301, "EPHEMERIS_TYPE": 0, "CLASSIFICATION_TYPE": "U", "NORAD_CAT_ID": 34006, "ELEMENT_SET_NO": 999, "REV_AT_EPOCH": 88660, "BSTAR": 0.0050900427, "MEAN_MOTION_DOT": 0.00055721, "MEAN_MOTION_DDOT": 0}, "tle": {"line1": "1 34006U 93036GR  25346.19697795  .00055721  00000+0  50900-2 0  9992", "line2": "2 34006  74.0529 144.3779 0011456  90.5339  85.7301 14.94696683886601"}}, "geometry": {"type": "Point", "coordinates": [97.615105238042, -67.92521171201939]}}, {"type": "Feature", "properties": {"norad_id": 34007, "name": "COSMOS 2251 DEB", "group": "cosmos-2251-debris", "lat": 1.0302482705302127, "lon": 165.80401545409586, "alt_km": 663.4936329165266, "timestamp": "2025-12-13T03:42:11.665437+00:00", "meta": {"OBJECT_NAME": "COSMOS 2251 DEB", "OBJECT_ID": "1993-036GS", "EPOCH": "2025-12-12T07:13:25.812480", "MEAN_MOTION": 14.64781799, "ECCENTRICITY": 0.00443168, "INCLINATION": 74.0197, "RA_OF_ASC_NODE": 347.741, "ARG_OF_PERICENTER": 122.8591, "MEAN_ANOMALY": 237.6855, "EPHEMERIS_TYPE": 0, "CLASSIFICATION_TYPE": "U", "NORAD_CAT_ID": 34007, "ELEMENT_SET_NO": 999, "REV_AT_EPOCH": 89073, "BSTAR": 0.0010836997, "MEAN_MOTION_DOT": 5.836e-05, "MEAN_MOTION_DDOT": 0}, "tle": {"line1": "1 34007U 93036GS  25346.30099320  .00005836  00000+0  10837-2 0  9993", "line2": "2 34007  74.0197 347.7410 0044316 122.8591 237.6855 14.64781799890735"}}, "geometry": {"type": "Point", "coordinates": [165.80401545409586, 1.0302482705302127]}}, {"type": "Feature", "properties": {"norad_id": 34008, "name": "COSMOS 2251 DEB", "group": "cosmos-2251-debris", "lat": -14.583929030996106, "lon": 154.0329014861525, "alt_km": 796.6357519216117, "timestamp": "2025-12-13T03:42:11.665447+00:00", "meta": {"OBJECT_NAME": "COSMOS 2251 DEB", "OBJECT_ID": "1993-036GT", "EPOCH": "2025-12-12T07:12:16.352928", "MEAN_MOTION": 14.3314589, "ECCENTRICITY": 0.00243008, "INCLINATION": 74.0342, "RA_OF_ASC_NODE": 331.3215, "ARG_OF_PERICENTER": 326.6127, "MEAN_ANOMALY": 143.7933, "EPHEMERIS_TYPE": 0, "CLASSIFICATION_TYPE": "U", "NORAD_CAT_ID": 34008, "ELEMENT_SET_NO": 999, "REV_AT_EPOCH": 87958, "BSTAR": 0.0002021984, "MEAN_MOTION_DOT": 5.31e-06, "MEAN_MOTION_DDOT": 0}, "tle": {"line1": "1 34008U 93036GT  25346.30018927  .00000531  00000+0  20220-3 0  9993", "line2": "2 34008  74.0342 331.3215 0024300 326.6127 143.7933 14.33145890879586"}}, "geometry": {"type": "Point", "coordinates": [154.0329014861525, -14.583929030996106]}}, {"type": "Feature", "properties": {"norad_id": 34009, "name": "COSMOS 2251 DEB", "group": "cosmos-2251-debris", "lat": -48.70457429075083, "lon": 175.19765075483724, "alt_km": 806.3501123226524, "timestamp": "2025-12-13T03:42:11.665457+00:00", "meta": {"OBJECT_NAME": "COSMOS 2251 DEB", "OBJECT_ID": "1993-036GU", "EPOCH": "2025-12-12T01:48:59.618592", "MEAN_MOTION": 14.33221332, "ECCENTRICITY": 0.00264854, "INCLINATION": 74.037, "RA_OF_ASC_NODE": 338.1501, "ARG_OF_PERICENTER": 47.9858, "MEAN_ANOMALY": 20.3921, "EPHEMERIS_TYPE": 0, "CLASSIFICATION_TYPE": "U", "NORAD_CAT_ID": 34009, "ELEMENT_SET_NO": 999, "REV_AT_EPOCH": 87936, "BSTAR": 0.00021674261, "MEAN_MOTION_DOT": 5.72e-06, "MEAN_MOTION_DDOT": 0}, "tle": {"line1": "1 34009U 93036GU  25346.07569003  .00000572  00000+0  21674-3 0  9993", "line2": "2 34009  74.0370 338.1501 0026485  47.9858  20.3921 14.33221332879360"}}, "geometry": {"type": "Point", "coordinates": [175.19765075483724, -48.70457429075083]}}, {"type": "Feature", "properties": {"norad_id": 34010, "name": "COSMOS 2251 DEB", "group": "cosmos-2251-debris", "lat": -48.247010539388945, "lon": 121.1952482243582, "alt_km": 519.3537936598241, "timestamp": "2025-12-13T03:42:11.665467+00:00", "meta": {"OBJECT_NAME": "COSMOS 2251 DEB", "OBJECT_ID": "1993-036GV", "EPOCH": "2025-12-12T06:08:12.786720", "MEAN_MOTION": 15.1853705, "ECCENTRICITY": 0.00048798, "INCLINATION": 73.9979, "RA_OF_ASC_NODE": 284.3244, "ARG_OF_PERICENTER": 67.1958, "MEAN_ANOMALY": 292.9754, "EPHEMERIS_TYPE": 0, "CLASSIFICATION_TYPE": "U", "NORAD_CAT_ID": 34010, "ELEMENT_SET_NO": 999, "REV_AT_EPOCH": 89278, "BSTAR": 0.0061075854, "MEAN_MOTION_DOT": 0.00128419, "MEAN_MOTION_DDOT": 0}, "tle": {"line1": "1 34010U 93036GV  25346.25570355  .00128419  00000+0  61076-2 0  9997", "line2": "2 34010  73.9979 284.3244 0004879  67.1958 292.9754 15.18537050892782"}}, "geometry": {"type": "Point", "coordinates": [121.1952482243582, -48.247010539388945]}}, {"type": "Feature", "properties": {"norad_id": 34011, "name": "COSMOS 2251 DEB", "group": "cosmos-2251-debris", "lat": -64.07042240161049, "lon": -174.49444377106886, "alt_km": 783.7981998444557, "timestamp": "2025-12-13T03:42:11.665477+00:00", "meta": {"OBJECT_NAME": "COSMOS 2251 DEB", "OBJECT_ID": "1993-036GW", "EPOCH": "2025-12-11T23:54:25.193088", "MEAN_MOTION": 14.4176453, "ECCENTRICITY": 0.0035537, "INCLINATION": 74.0154, "RA_OF_ASC_NODE": 331.5293, "ARG_OF_PERICENTER": 55.2711, "MEAN_ANOMALY": 305.1783, "EPHEMERIS_TYPE": 0, "CLASSIFICATION_TYPE": "U", "NORAD_CAT_ID": 34011, "ELEMENT_SET_NO": 999, "REV_AT_EPOCH": 87905, "BSTAR": 0.0012457, "MEAN_MOTION_DOT": 4.074e-05, "MEAN_MOTION_DDOT": 0}, "tle": {"line1": "1 34011U 93036GW  25345.99612492  .00004074  00000+0  12457-2 0  9996", "line2": "2 34011  74.0154 331.5293 0035537  55.2711 305.1783 14.41764530879053"}}, "geometry": {"type": "Point", "coordinates": [-174.49444377106886, -64.07042240161049]}}]}